start=new Date('2023-06-06T00:00:00.000Z').valueOf();
sats=[{"PERIAPSIS":"538.994","REV_AT_EPOCH":"3378","BSTAR":"0.00011104000000","MEAN_ELEMENT_THEORY":"SGP4","REF_FRAME":"TEME","EPHEMERIS_TYPE":"0","OBJECT_TYPE":"PAYLOAD","FILE":"3925691","NORAD_CAT_ID":"54197","OBJECT_ID":"2022-141AS","MEAN_ANOMALY":"279.4011","MEAN_MOTION_DDOT":"0.0000000000000","SEMIMAJOR_AXIS":"6917.876","OBJECT_NAME":"STARLINK-5234","SITE":"AFWTR","APOAPSIS":"540.487","COUNTRY_CODE":"US","PERIOD":"95.437","TLE_LINE1":"1 54197U 22141AS  23156.42165187  .00001480  00000-0  11104-3 0  9990","ECCENTRICITY":"0.00010790","MEAN_MOTION_DOT":"0.00001480","CENTER_NAME":"EARTH","INCLINATION":"53.2152","RCS_SIZE":"LARGE","LAUNCH_DATE":"2022-10-28","CLASSIFICATION_TYPE":"U","ELEMENT_SET_NO":"999","GP_ID":"233258951","RA_OF_ASC_NODE":"200.4141","TLE_LINE2":"2 54197  53.2152 200.4141 0001079  80.7103 279.4011 15.08841586 33785","MEAN_MOTION":"15.08841586","EPOCH":"2023-06-05T10:07:10.721568","ARG_OF_PERICENTER":"80.7103","DECAY_DATE":null,"TIME_SYSTEM":"UTC"},{"RA_OF_ASC_NODE":"200.3235","GP_ID":"233259701","ELEMENT_SET_NO":"999","DECAY_DATE":null,"TIME_SYSTEM":"UTC","EPOCH":"2023-06-05T09:45:57.431808","MEAN_MOTION":"15.08840122","ARG_OF_PERICENTER":"81.6956","TLE_LINE2":"2 54198  53.2168 200.3235 0001054  81.6956 278.4156 15.08840122 33789","LAUNCH_DATE":"2022-10-28","CLASSIFICATION_TYPE":"U","RCS_SIZE":"LARGE","CENTER_NAME":"EARTH","INCLINATION":"53.2168","MEAN_MOTION_DOT":"-0.00000185","COUNTRY_CODE":"US","PERIOD":"95.438","APOAPSIS":"540.474","ECCENTRICITY":"0.00010540","TLE_LINE1":"1 54198U 22141AT  23156.40691472 -.00000185  00000-0  64385-5 0  9993","EPHEMERIS_TYPE":"0","FILE":"3925691","OBJECT_TYPE":"PAYLOAD","MEAN_ELEMENT_THEORY":"SGP4","REF_FRAME":"TEME","BSTAR":"0.00000643850000","REV_AT_EPOCH":"3378","PERIAPSIS":"539.016","OBJECT_NAME":"STARLINK-5246","SITE":"AFWTR","MEAN_ANOMALY":"278.4156","MEAN_MOTION_DDOT":"0.0000000000000","SEMIMAJOR_AXIS":"6917.880","OBJECT_ID":"2022-141AT","NORAD_CAT_ID":"54198"},{"NORAD_CAT_ID":"54199","OBJECT_ID":"2022-141AU","SEMIMAJOR_AXIS":"6917.895","MEAN_MOTION_DDOT":"0.0000000000000","MEAN_ANOMALY":"256.8124","SITE":"AFWTR","OBJECT_NAME":"STARLINK-5244","PERIAPSIS":"538.951","REV_AT_EPOCH":"3380","BSTAR":"0.00000837810000","REF_FRAME":"TEME","MEAN_ELEMENT_THEORY":"SGP4","FILE":"3925691","OBJECT_TYPE":"PAYLOAD","EPHEMERIS_TYPE":"0","TLE_LINE1":"1 54199U 22141AU  23156.54676589 -.00000154  00000-0  83781-5 0  9998","ECCENTRICITY":"0.00011690","APOAPSIS":"540.568","PERIOD":"95.438","COUNTRY_CODE":"US","MEAN_MOTION_DOT":"-0.00000154","CENTER_NAME":"EARTH","INCLINATION":"53.2158","RCS_SIZE":"LARGE","CLASSIFICATION_TYPE":"U","LAUNCH_DATE":"2022-10-28","TLE_LINE2":"2 54199  53.2158 199.7727 0001169 103.2998 256.8124 15.08835351 33806","ARG_OF_PERICENTER":"103.2998","MEAN_MOTION":"15.08835351","EPOCH":"2023-06-05T13:07:20.572896","DECAY_DATE":null,"TIME_SYSTEM":"UTC","ELEMENT_SET_NO":"999","GP_ID":"233259953","RA_OF_ASC_NODE":"199.7727"},{"MEAN_ELEMENT_THEORY":"SGP4","REF_FRAME":"TEME","EPHEMERIS_TYPE":"0","OBJECT_TYPE":"PAYLOAD","FILE":"3925691","PERIAPSIS":"539.060","REV_AT_EPOCH":"3380","BSTAR":"0.00007476000000","MEAN_ANOMALY":"277.7377","MEAN_MOTION_DDOT":"0.0000000000000","SEMIMAJOR_AXIS":"6917.879","OBJECT_NAME":"STARLINK-5250","SITE":"AFWTR","NORAD_CAT_ID":"54200","OBJECT_ID":"2022-141AV","COUNTRY_CODE":"US","PERIOD":"95.438","APOAPSIS":"540.427","ECCENTRICITY":"0.00009880","TLE_LINE1":"1 54200U 22141AV  23156.53202497  .00000902  00000-0  74760-4 0  9999","RCS_SIZE":"LARGE","LAUNCH_DATE":"2022-10-28","CLASSIFICATION_TYPE":"U","MEAN_MOTION_DOT":"0.00000902","CENTER_NAME":"EARTH","INCLINATION":"53.2151","GP_ID":"233260703","RA_OF_ASC_NODE":"199.6810","ELEMENT_SET_NO":"999","EPOCH":"2023-06-05T12:46:06.957408","MEAN_MOTION":"15.08840497","ARG_OF_PERICENTER":"82.3728","TIME_SYSTEM":"UTC","DECAY_DATE":null,"TLE_LINE2":"2 54200  53.2151 199.6810 0000988  82.3728 277.7377 15.08840497 33809"},{"OBJECT_ID":"2022-141AW","NORAD_CAT_ID":"54201","OBJECT_NAME":"STARLINK-5199","SITE":"AFWTR","MEAN_ANOMALY":"285.2452","SEMIMAJOR_AXIS":"6917.855","MEAN_MOTION_DDOT":"0.0000000000000","BSTAR":"0.00007325600000","PERIAPSIS":"538.956","REV_AT_EPOCH":"3380","EPHEMERIS_TYPE":"0","FILE":"3925691","OBJECT_TYPE":"PAYLOAD","MEAN_ELEMENT_THEORY":"SGP4","REF_FRAME":"TEME","TLE_LINE1":"1 54201U 22141AW  23156.52833571  .00000878  00000-0  73256-4 0  9993","ECCENTRICITY":"0.00011040","APOAPSIS":"540.483","COUNTRY_CODE":"US","PERIOD":"95.437","CENTER_NAME":"EARTH","INCLINATION":"53.2159","MEAN_MOTION_DOT":"0.00000878","LAUNCH_DATE":"2022-10-28","CLASSIFICATION_TYPE":"U","RCS_SIZE":"LARGE","TLE_LINE2":"2 54201  53.2159 199.6589 0001104  74.8663 285.2452 15.08848430 33809","TIME_SYSTEM":"UTC","DECAY_DATE":null,"EPOCH":"2023-06-05T12:40:48.205344","MEAN_MOTION":"15.08848430","ARG_OF_PERICENTER":"74.8663","ELEMENT_SET_NO":"999","RA_OF_ASC_NODE":"199.6589","GP_ID":"233259451"},{"ARG_OF_PERICENTER":"81.2403","EPOCH":"2023-06-05T12:35:30.371712","MEAN_MOTION":"15.08841196","DECAY_DATE":null,"TIME_SYSTEM":"UTC","TLE_LINE2":"2 54202  53.2152 199.6361 0001019  81.2403 278.8704 15.08841196 33800","GP_ID":"233259202","RA_OF_ASC_NODE":"199.6361","ELEMENT_SET_NO":"999","RCS_SIZE":"LARGE","CLASSIFICATION_TYPE":"U","LAUNCH_DATE":"2022-10-28","MEAN_MOTION_DOT":"-0.00000146","CENTER_NAME":"EARTH","INCLINATION":"53.2152","TLE_LINE1":"1 54202U 22141AX  23156.52465708 -.00000146  00000-0  89333-5 0  9990","ECCENTRICITY":"0.00010190","PERIOD":"95.437","COUNTRY_CODE":"US","APOAPSIS":"540.447","SEMIMAJOR_AXIS":"6917.877","MEAN_MOTION_DDOT":"0.0000000000000","MEAN_ANOMALY":"278.8704","SITE":"AFWTR","OBJECT_NAME":"STARLINK-5205","NORAD_CAT_ID":"54202","OBJECT_ID":"2022-141AX","REF_FRAME":"TEME","MEAN_ELEMENT_THEORY":"SGP4","FILE":"3925691","OBJECT_TYPE":"PAYLOAD","EPHEMERIS_TYPE":"0","REV_AT_EPOCH":"3380","PERIAPSIS":"539.037","BSTAR":"0.00000893330000"},{"RCS_SIZE":"LARGE","CLASSIFICATION_TYPE":"U","LAUNCH_DATE":"2022-10-28","MEAN_MOTION_DOT":"0.00000694","CENTER_NAME":"EARTH","INCLINATION":"53.2161","ARG_OF_PERICENTER":"78.1170","EPOCH":"2023-06-05T12:51:25.468416","MEAN_MOTION":"15.08839819","DECAY_DATE":null,"TIME_SYSTEM":"UTC","TLE_LINE2":"2 54203  53.2161 199.7055 0001053  78.1170 281.9940 15.08839819 33802","GP_ID":"233260453","RA_OF_ASC_NODE":"199.7055","ELEMENT_SET_NO":"999","MEAN_MOTION_DDOT":"0.0000000000000","SEMIMAJOR_AXIS":"6917.881","MEAN_ANOMALY":"281.9940","SITE":"AFWTR","OBJECT_NAME":"STARLINK-5247","NORAD_CAT_ID":"54203","OBJECT_ID":"2022-141AY","REF_FRAME":"TEME","MEAN_ELEMENT_THEORY":"SGP4","OBJECT_TYPE":"PAYLOAD","FILE":"3925691","EPHEMERIS_TYPE":"0","PERIAPSIS":"539.017","REV_AT_EPOCH":"3380","BSTAR":"0.00006170600000","ECCENTRICITY":"0.00010530","TLE_LINE1":"1 54203U 22141AY  23156.53571144  .00000694  00000-0  61706-4 0  9994","PERIOD":"95.438","COUNTRY_CODE":"US","APOAPSIS":"540.474"},{"TLE_LINE2":"2 54204  53.2157 199.5681 0001011  82.2714 277.8393 15.08835505 33809","TIME_SYSTEM":"UTC","DECAY_DATE":null,"MEAN_MOTION":"15.08835505","EPOCH":"2023-06-05T12:19:35.701824","ARG_OF_PERICENTER":"82.2714","ELEMENT_SET_NO":"999","RA_OF_ASC_NODE":"199.5681","GP_ID":"233260204","INCLINATION":"53.2157","CENTER_NAME":"EARTH","MEAN_MOTION_DOT":"-0.00000033","LAUNCH_DATE":"2022-10-28","CLASSIFICATION_TYPE":"U","RCS_SIZE":"LARGE","ECCENTRICITY":"0.00010110","TLE_LINE1":"1 54204U 22141AZ  23156.51360766 -.00000033  00000-0  16032-4 0  9999","APOAPSIS":"540.459","COUNTRY_CODE":"US","PERIOD":"95.438","OBJECT_ID":"2022-141AZ","NORAD_CAT_ID":"54204","OBJECT_NAME":"STARLINK-5241","SITE":"AFWTR","MEAN_ANOMALY":"277.8393","MEAN_MOTION_DDOT":"0.0000000000000","SEMIMAJOR_AXIS":"6917.894","BSTAR":"0.00001603200000","PERIAPSIS":"539.060","REV_AT_EPOCH":"3380","EPHEMERIS_TYPE":"0","OBJECT_TYPE":"PAYLOAD","FILE":"3925691","MEAN_ELEMENT_THEORY":"SGP4","REF_FRAME":"TEME"},{"DECAY_DATE":null,"TIME_SYSTEM":"UTC","EPOCH":"2023-06-05T12:30:11.976480","MEAN_MOTION":"15.08840595","ARG_OF_PERICENTER":"88.2959","TLE_LINE2":"2 54205  53.2152 199.6121 0000847  88.2959 271.8130 15.08840595 33806","RA_OF_ASC_NODE":"199.6121","GP_ID":"233258952","ELEMENT_SET_NO":"999","LAUNCH_DATE":"2022-10-28","CLASSIFICATION_TYPE":"U","RCS_SIZE":"LARGE","CENTER_NAME":"EARTH","INCLINATION":"53.2152","MEAN_MOTION_DOT":"0.00001208","ECCENTRICITY":"0.00008470","TLE_LINE1":"1 54205U 22141BA  23156.52097195  .00001208  00000-0  93954-4 0  9996","COUNTRY_CODE":"US","PERIOD":"95.438","APOAPSIS":"540.330","OBJECT_NAME":"STARLINK-5249","SITE":"AFWTR","MEAN_ANOMALY":"271.8130","MEAN_MOTION_DDOT":"0.0000000000000","SEMIMAJOR_AXIS":"6917.879","OBJECT_ID":"2022-141BA","NORAD_CAT_ID":"54205","EPHEMERIS_TYPE":"0","OBJECT_TYPE":"PAYLOAD","FILE":"3925691","MEAN_ELEMENT_THEORY":"SGP4","REF_FRAME":"TEME","BSTAR":"0.00009395400000","PERIAPSIS":"539.158","REV_AT_EPOCH":"3380"},{"COUNTRY_CODE":"US","PERIOD":"95.438","APOAPSIS":"540.527","TLE_LINE1":"1 54206U 22141BB  23156.73213678 -.00000096  00000-0  12021-4 0  9997","ECCENTRICITY":"0.00011130","MEAN_ELEMENT_THEORY":"SGP4","REF_FRAME":"TEME","EPHEMERIS_TYPE":"0","OBJECT_TYPE":"PAYLOAD","FILE":"3925751","REV_AT_EPOCH":"3432","PERIAPSIS":"538.987","BSTAR":"0.00001202100000","MEAN_ANOMALY":"280.6067","MEAN_MOTION_DDOT":"0.0000000000000","SEMIMAJOR_AXIS":"6917.892","OBJECT_NAME":"STARLINK-5264","SITE":"AFWTR","NORAD_CAT_ID":"54206","OBJECT_ID":"2022-141BB","GP_ID":"233288164","RA_OF_ASC_NODE":"163.8462","ELEMENT_SET_NO":"999","MEAN_MOTION":"15.08836077","EPOCH":"2023-06-05T17:34:16.617792","ARG_OF_PERICENTER":"79.5050","DECAY_DATE":null,"TIME_SYSTEM":"UTC","TLE_LINE2":"2 54206  53.2168 163.8462 0001113  79.5050 280.6067 15.08836077 34322","RCS_SIZE":"LARGE","LAUNCH_DATE":"2022-10-28","CLASSIFICATION_TYPE":"U","MEAN_MOTION_DOT":"-0.00000096","INCLINATION":"53.2168","CENTER_NAME":"EARTH"}];
